[{"OBJECT_NAME":"STARLINK-3848","OBJECT_ID":"2022-045AH","EPOCH":"2026-03-09T15:40:23.686752","MEAN_MOTION":15.08831406,"ECCENTRICITY":0.00013114,"INCLINATION":53.2179,"RA_OF_ASC_NODE":189.286,"ARG_OF_PERICENTER":72.931,"MEAN_ANOMALY":287.1826,"EPHEMERIS_TYPE":0,"CLASSIFICATION_TYPE":"U","NORAD_CAT_ID":52362,"ELEMENT_SET_NO":999,"REV_AT_EPOCH":21591,"BSTAR":-7.3986771e-5,"MEAN_MOTION_DOT":-1.465e-5,"MEAN_MOTION_DDOT":0},{"OBJECT_NAME":"NANOFF A","OBJECT_ID":"2023-185T","EPOCH":"2026-03-09T23:34:34.415328","MEAN_MOTION":15.11542977,"ECCENTRICITY":0.00086783,"INCLINATION":97.5359,"RA_OF_ASC_NODE":137.8345,"ARG_OF_PERICENTER":292.8968,"MEAN_ANOMALY":67.1346,"EPHEMERIS_TYPE":0,"CLASSIFICATION_TYPE":"U","NORAD_CAT_ID":58810,"ELEMENT_SET_NO":999,"REV_AT_EPOCH":11805,"BSTAR":0.00027314844,"MEAN_MOTION_DOT":4.57e-5,"MEAN_MOTION_DDOT":0}]
